{
  "type": "FeatureCollection",
  "features": [
    {
      "type": "Feature",
      "properties": {
        "norad_id": 37836,
        "name": "EUTELSAT 16A",
        "group": "eutelsat",
        "lat": 0.07394324152934874,
        "lon": 91.2498114491262,
        "alt_km": 35810.761941945195,
        "timestamp": "2025-12-25T22:42:16.667896+00:00",
        "meta_object_name": "EUTELSAT 16A",
        "meta_object_id": "2011-057A",
        "meta_epoch": "2025-12-25T16:33:59.561280",
        "meta_mean_motion": 1.00271388,
        "meta_eccentricity": 0.0005835,
        "meta_inclination": 0.0559,
        "meta_ra_of_asc_node": 350.673,
        "meta_arg_of_pericenter": 285.8029,
        "meta_mean_anomaly": 82.4518,
        "meta_ephemeris_type": 0,
        "meta_classification_type": "U",
        "meta_norad_cat_id": 37836,
        "meta_element_set_no": 999,
        "meta_rev_at_epoch": 558,
        "meta_bstar": 0,
        "meta_mean_motion_dot": 1.25e-06,
        "meta_mean_motion_ddot": 0,
        "tle_line1": "1 37836U 11057A   25359.69027270  .00000125  00000+0  00000+0 0  9994",
        "tle_line2": "2 37836   0.0559 350.6730 0005835 285.8029  82.4518  1.00271388  5583"
      },
      "geometry": {
        "type": "Point",
        "coordinates": [
          91.2498114491262,
          0.07394324152934874
        ]
      }
    },
    {
      "type": "Feature",
      "properties": {
        "norad_id": 38992,
        "name": "EUTELSAT 21B",
        "group": "eutelsat",
        "lat": 0.08155174912629473,
        "lon": 96.83900842195503,
        "alt_km": 35799.876496418954,
        "timestamp": "2025-12-25T22:42:16.667907+00:00",
        "meta_object_name": "EUTELSAT 21B",
        "meta_object_id": "2012-062B",
        "meta_epoch": "2025-12-24T23:28:26.457600",
        "meta_mean_motion": 1.00271068,
        "meta_eccentricity": 0.00032446,
        "meta_inclination": 0.0657,
        "meta_ra_of_asc_node": 349.5129,
        "meta_arg_of_pericenter": 289.9649,
        "meta_mean_anomaly": 187.9548,
        "meta_ephemeris_type": 0,
        "meta_classification_type": "U",
        "meta_norad_cat_id": 38992,
        "meta_element_set_no": 999,
        "meta_rev_at_epoch": 4808,
        "meta_bstar": 0,
        "meta_mean_motion_dot": 1.51e-06,
        "meta_mean_motion_ddot": 0,
        "tle_line1": "1 38992U 12062B   25358.97808400  .00000151  00000+0  00000+0 0  9996",
        "tle_line2": "2 38992   0.0657 349.5129 0003244 289.9649 187.9548  1.00271068 48081"
      },
      "geometry": {
        "type": "Point",
        "coordinates": [
          96.83900842195503,
          0.08155174912629473
        ]
      }
    },
    {
      "type": "Feature",
      "properties": {
        "norad_id": 39020,
        "name": "EUTELSAT 70B",
        "group": "eutelsat",
        "lat": 0.03703271836243177,
        "lon": 145.71085625739914,
        "alt_km": 35792.0251412539,
        "timestamp": "2025-12-25T22:42:16.667919+00:00",
        "meta_object_name": "EUTELSAT 70B",
        "meta_object_id": "2012-069A",
        "meta_epoch": "2025-12-25T18:24:05.547168",
        "meta_mean_motion": 1.00271992,
        "meta_eccentricity": 0.000418,
        "meta_inclination": 0.0614,
        "meta_ra_of_asc_node": 349.0433,
        "meta_arg_of_pericenter": 266.3901,
        "meta_mean_anomaly": 185.6065,
        "meta_ephemeris_type": 0,
        "meta_classification_type": "U",
        "meta_norad_cat_id": 39020,
        "meta_element_set_no": 999,
        "meta_rev_at_epoch": 4777,
        "meta_bstar": 0,
        "meta_mean_motion_dot": -2.2e-07,
        "meta_mean_motion_ddot": 0,
        "tle_line1": "1 39020U 12069A   25359.76673087 -.00000022  00000+0  00000+0 0  9993",
        "tle_line2": "2 39020   0.0614 349.0433 0004180 266.3901 185.6065  1.00271992 47770"
      },
      "geometry": {
        "type": "Point",
        "coordinates": [
          145.71085625739914,
          0.03703271836243177
        ]
      }
    },
    {
      "type": "Feature",
      "properties": {
        "norad_id": 39122,
        "name": "EUTELSAT 117 WEST A",
        "group": "eutelsat",
        "lat": -0.012394257780996796,
        "lon": -41.515704638294956,
        "alt_km": 35777.35838044115,
        "timestamp": "2025-12-25T22:42:16.667931+00:00",
        "meta_object_name": "EUTELSAT 117 WEST A",
        "meta_object_id": "2013-012A",
        "meta_epoch": "2025-12-25T15:56:10.681728",
        "meta_mean_motion": 1.00270782,
        "meta_eccentricity": 0.0002791,
        "meta_inclination": 0.0176,
        "meta_ra_of_asc_node": 324.0634,
        "meta_arg_of_pericenter": 314.0111,
        "meta_mean_anomaly": 298.594,
        "meta_ephemeris_type": 0,
        "meta_classification_type": "U",
        "meta_norad_cat_id": 39122,
        "meta_element_set_no": 999,
        "meta_rev_at_epoch": 4669,
        "meta_bstar": 0,
        "meta_mean_motion_dot": 9e-08,
        "meta_mean_motion_ddot": 0,
        "tle_line1": "1 39122U 13012A   25359.66401252  .00000009  00000+0  00000+0 0  9991",
        "tle_line2": "2 39122   0.0176 324.0634 0002791 314.0111 298.5940  1.00270782 46694"
      },
      "geometry": {
        "type": "Point",
        "coordinates": [
          -41.515704638294956,
          -0.012394257780996796
        ]
      }
    },
    {
      "type": "Feature",
      "properties": {
        "norad_id": 39163,
        "name": "EUTELSAT 7B",
        "group": "eutelsat",
        "lat": 0.08181476149643777,
        "lon": 82.29984078230557,
        "alt_km": 35795.92228691388,
        "timestamp": "2025-12-25T22:42:16.667944+00:00",
        "meta_object_name": "EUTELSAT 7B",
        "meta_object_id": "2013-022A",
        "meta_epoch": "2025-12-25T13:05:49.496064",
        "meta_mean_motion": 1.00271702,
        "meta_eccentricity": 0.0004644,
        "meta_inclination": 0.066,
        "meta_ra_of_asc_node": 10.1189,
        "meta_arg_of_pericenter": 312.1563,
        "meta_mean_anomaly": 335.4778,
        "meta_ephemeris_type": 0,
        "meta_classification_type": "U",
        "meta_norad_cat_id": 39163,
        "meta_element_set_no": 999,
        "meta_rev_at_epoch": 4620,
        "meta_bstar": 0,
        "meta_mean_motion_dot": 6.9e-07,
        "meta_mean_motion_ddot": 0,
        "tle_line1": "1 39163U 13022A   25359.54571176  .00000069  00000+0  00000+0 0  9993",
        "tle_line2": "2 39163   0.0660  10.1189 0004644 312.1563 335.4778  1.00271702 46204"
      },
      "geometry": {
        "type": "Point",
        "coordinates": [
          82.29984078230557,
          0.08181476149643777
        ]
      }
    },
    {
      "type": "Feature",
      "properties": {
        "norad_id": 39612,
        "name": "EXPRESS-AT1",
        "group": "eutelsat",
        "lat": 0.00815379372393568,
        "lon": 131.2584902574509,
        "alt_km": 35782.515053376956,
        "timestamp": "2025-12-25T22:42:16.667956+00:00",
        "meta_object_name": "EXPRESS-AT1",
        "meta_object_id": "2014-010A",
        "meta_epoch": "2025-12-25T13:19:48.156672",
        "meta_mean_motion": 1.0027145,
        "meta_eccentricity": 8.81e-05,
        "meta_inclination": 0.0121,
        "meta_ra_of_asc_node": 301.1676,
        "meta_arg_of_pericenter": 176.9895,
        "meta_mean_anomaly": 232.1025,
        "meta_ephemeris_type": 0,
        "meta_classification_type": "U",
        "meta_norad_cat_id": 39612,
        "meta_element_set_no": 999,
        "meta_rev_at_epoch": 4307,
        "meta_bstar": 0,
        "meta_mean_motion_dot": 1e-06,
        "meta_mean_motion_ddot": 0,
        "tle_line1": "1 39612U 14010A   25359.55541848  .00000100  00000+0  00000+0 0  9990",
        "tle_line2": "2 39612   0.0121 301.1676 0000881 176.9895 232.1025  1.00271450 43072"
      },
      "geometry": {
        "type": "Point",
        "coordinates": [
          131.2584902574509,
          0.00815379372393568
        ]
      }
    },
    {
      "type": "Feature",
      "properties": {
        "norad_id": 39613,
        "name": "EXPRESS-AT2",
        "group": "eutelsat",
        "lat": -0.017173799520338224,
        "lon": -144.89264203711133,
        "alt_km": 35782.569102078225,
        "timestamp": "2025-12-25T22:42:16.667968+00:00",
        "meta_object_name": "EXPRESS-AT2",
        "meta_object_id": "2014-010B",
        "meta_epoch": "2025-12-25T17:52:52.676832",
        "meta_mean_motion": 1.00271624,
        "meta_eccentricity": 0.0001622,
        "meta_inclination": 0.0143,
        "meta_ra_of_asc_node": 298.5676,
        "meta_arg_of_pericenter": 335.0539,
        "meta_mean_anomaly": 228.9608,
        "meta_ephemeris_type": 0,
        "meta_classification_type": "U",
        "meta_norad_cat_id": 39613,
        "meta_element_set_no": 999,
        "meta_rev_at_epoch": 4276,
        "meta_bstar": 0,
        "meta_mean_motion_dot": -2.6e-06,
        "meta_mean_motion_ddot": 0,
        "tle_line1": "1 39613U 14010B   25359.74505413 -.00000260  00000+0  00000+0 0  9998",
        "tle_line2": "2 39613   0.0143 298.5676 0001622 335.0539 228.9608  1.00271624 42761"
      },
      "geometry": {
        "type": "Point",
        "coordinates": [
          -144.89264203711133,
          -0.017173799520338224
        ]
      }
    }
  ]
}